HERMES-3                
1 63835U 25052BR  26068.93751242  .00020316  00000+0  69958-3 0  9995
2 63835  97.3987 324.6131 0007993 112.9583 247.2502 15.30039785 54863
STARLINK-36422          
1 67344U 26003L   26068.46969109  .00031958  00000+0  11656-2 0  9997
2 67344  43.0012 228.0069 0001640 256.6879 103.3790 15.27586691  8794
