[{"OBJECT_NAME":"HERMES-3","OBJECT_ID":"2025-052BR","EPOCH":"2026-03-09T22:30:01.073952","MEAN_MOTION":15.30039786,"ECCENTRICITY":0.00079928,"INCLINATION":97.3987,"RA_OF_ASC_NODE":324.6131,"ARG_OF_PERICENTER":112.9583,"MEAN_ANOMALY":247.2502,"EPHEMERIS_TYPE":0,"CLASSIFICATION_TYPE":"U","NORAD_CAT_ID":63835,"ELEMENT_SET_NO":999,"REV_AT_EPOCH":5486,"BSTAR":0.0006995793,"MEAN_MOTION_DOT":0.00020316,"MEAN_MOTION_DDOT":0},{"OBJECT_NAME":"STARLINK-36422","OBJECT_ID":"2026-003L","EPOCH":"2026-03-09T11:16:21.310176","MEAN_MOTION":15.27586691,"ECCENTRICITY":0.000164,"INCLINATION":43.0012,"RA_OF_ASC_NODE":228.0069,"ARG_OF_PERICENTER":256.6879,"MEAN_ANOMALY":103.379,"EPHEMERIS_TYPE":0,"CLASSIFICATION_TYPE":"U","NORAD_CAT_ID":67344,"ELEMENT_SET_NO":999,"REV_AT_EPOCH":879,"BSTAR":0.0011655825,"MEAN_MOTION_DOT":0.00031958,"MEAN_MOTION_DDOT":0}]
